{"fetched_at":"2026-03-29T16:36:15Z","count":15609,"tles":[{"name":"STARLINK-35225","line1":"1 65626U 25210E   26087.76963617  .00086180  00000+0  28869-2 0  9990","line2":"2 65626  53.1587 218.3607 0001401  84.3583 275.7578 15.30216020 30655","category":"Starlink"}]}