{
  "norad_id": 65626,
  "name": "STARLINK-35225",
  "history": [
    {
      "epoch": "2026-03-28T18:28:16.565088",
      "apogee_km": 476.1279331921978,
      "perigee_km": 474.20654081631073,
      "latitude_deg": -17.36992969005556,
      "longitude_deg": 96.48507232009433,
      "semi_major_axis_km": 6853.304237004254,
      "eccentricity": 0.00014018,
      "inclination_deg": 53.1587,
      "raan_deg": 218.3607,
      "arg_perigee_deg": 84.3583,
      "mean_anomaly_deg": 275.7578,
      "mean_motion_rev_day": 15.3021602
    }
  ]
}